start=new Date('2023-02-21T00:00:00.000Z').valueOf();
sats=[{"OBJECT_TYPE":"PAYLOAD","GP_ID":"226194782","MEAN_ELEMENT_THEORY":"SGP4","NORAD_CAT_ID":"51792","REV_AT_EPOCH":"5598","ELEMENT_SET_NO":"999","EPHEMERIS_TYPE":"0","EPOCH":"2023-02-20T22:24:51.130368","ECCENTRICITY":"0.00012200","ARG_OF_PERICENTER":"92.9704","DECAY_DATE":null,"RA_OF_ASC_NODE":"304.4835","TLE_LINE2":"2 51792  53.2156 304.4835 0001220  92.9704 267.1427 15.08834793 55985","INCLINATION":"53.2156","PERIAPSIS":"538.917","RCS_SIZE":"LARGE","CENTER_NAME":"EARTH","LAUNCH_DATE":"2022-02-25","TIME_SYSTEM":"UTC","TLE_LINE1":"1 51792U 22017AA  23051.93392512 -.00002196  00000-0 -11996-3 0  9990","MEAN_MOTION":"15.08834793","FILE":"3817364","REF_FRAME":"TEME","OBJECT_ID":"2022-017AA","MEAN_ANOMALY":"267.1427","BSTAR":"-0.00011996000000","OBJECT_NAME":"STARLINK-3626","MEAN_MOTION_DOT":"-0.00002196","PERIOD":"95.438","COUNTRY_CODE":"US","SITE":"AFWTR","CLASSIFICATION_TYPE":"U","MEAN_MOTION_DDOT":"0.0000000000000","SEMIMAJOR_AXIS":"6917.896","APOAPSIS":"540.605"},{"TLE_LINE2":"2 51793  53.2142 306.4975 0001392  79.3280 280.7869 15.08844445 55915","RA_OF_ASC_NODE":"306.4975","DECAY_DATE":null,"ARG_OF_PERICENTER":"79.3280","TLE_LINE1":"1 51793U 22017AB  23051.48497061  .00000993  00000-0  80454-4 0  9993","LAUNCH_DATE":"2022-02-25","CENTER_NAME":"EARTH","TIME_SYSTEM":"UTC","PERIAPSIS":"538.769","INCLINATION":"53.2142","RCS_SIZE":"MEDIUM","NORAD_CAT_ID":"51793","MEAN_ELEMENT_THEORY":"SGP4","GP_ID":"226158114","OBJECT_TYPE":"PAYLOAD","EPOCH":"2023-02-20T11:38:21.460704","ECCENTRICITY":"0.00013920","ELEMENT_SET_NO":"999","EPHEMERIS_TYPE":"0","REV_AT_EPOCH":"5591","COUNTRY_CODE":"US","SITE":"AFWTR","MEAN_MOTION_DOT":"0.00000993","PERIOD":"95.437","APOAPSIS":"540.695","MEAN_MOTION_DDOT":"0.0000000000000","CLASSIFICATION_TYPE":"U","SEMIMAJOR_AXIS":"6917.867","FILE":"3815761","REF_FRAME":"TEME","MEAN_MOTION":"15.08844445","OBJECT_NAME":"STARLINK-3633","BSTAR":"0.00008045400000","MEAN_ANOMALY":"280.7869","OBJECT_ID":"2022-017AB"},{"MEAN_MOTION_DOT":"0.00005243","PERIOD":"95.436","SITE":"AFWTR","COUNTRY_CODE":"US","SEMIMAJOR_AXIS":"6917.822","CLASSIFICATION_TYPE":"U","MEAN_MOTION_DDOT":"0.0000000000000","APOAPSIS":"540.807","MEAN_MOTION":"15.08859006","REF_FRAME":"TEME","FILE":"3815761","MEAN_ANOMALY":"276.4329","OBJECT_ID":"2022-017AC","BSTAR":"0.00034710000000","OBJECT_NAME":"STARLINK-3573","ARG_OF_PERICENTER":"83.6848","DECAY_DATE":null,"RA_OF_ASC_NODE":"306.8863","TLE_LINE2":"2 51794  53.2165 306.8863 0001618  83.6848 276.4329 15.08859006 55855","RCS_SIZE":"LARGE","PERIAPSIS":"538.568","INCLINATION":"53.2165","TIME_SYSTEM":"UTC","CENTER_NAME":"EARTH","LAUNCH_DATE":"2022-02-25","TLE_LINE1":"1 51794U 22017AC  23051.39664380  .00005243  00000-0  34710-3 0  9990","OBJECT_TYPE":"PAYLOAD","GP_ID":"226158365","NORAD_CAT_ID":"51794","MEAN_ELEMENT_THEORY":"SGP4","REV_AT_EPOCH":"5585","EPHEMERIS_TYPE":"0","ELEMENT_SET_NO":"999","ECCENTRICITY":"0.00016180","EPOCH":"2023-02-20T09:31:10.024320"},{"APOAPSIS":"540.558","CLASSIFICATION_TYPE":"U","MEAN_MOTION_DDOT":"0.0000000000000","SEMIMAJOR_AXIS":"6917.847","COUNTRY_CODE":"US","SITE":"AFWTR","PERIOD":"95.437","MEAN_MOTION_DOT":"0.00014880","OBJECT_NAME":"STARLINK-3586","BSTAR":"0.00095074000000","OBJECT_ID":"2022-017AD","MEAN_ANOMALY":"261.2115","FILE":"3817352","REF_FRAME":"TEME","MEAN_MOTION":"15.08850833","TLE_LINE1":"1 51795U 22017AD  23051.99648438  .00014880  00000-0  95074-3 0  9990","LAUNCH_DATE":"2022-02-25","CENTER_NAME":"EARTH","TIME_SYSTEM":"UTC","INCLINATION":"53.2156","PERIAPSIS":"538.867","RCS_SIZE":"LARGE","TLE_LINE2":"2 51795  53.2156 304.1953 0001222  98.9016 261.2115 15.08850833 55948","RA_OF_ASC_NODE":"304.1953","DECAY_DATE":null,"ARG_OF_PERICENTER":"98.9016","EPOCH":"2023-02-20T23:54:56.250432","ECCENTRICITY":"0.00012220","ELEMENT_SET_NO":"999","EPHEMERIS_TYPE":"0","REV_AT_EPOCH":"5594","MEAN_ELEMENT_THEORY":"SGP4","NORAD_CAT_ID":"51795","OBJECT_TYPE":"PAYLOAD","GP_ID":"226194798"},{"NORAD_CAT_ID":"51796","MEAN_ELEMENT_THEORY":"SGP4","GP_ID":"226157364","OBJECT_TYPE":"PAYLOAD","ECCENTRICITY":"0.00013330","EPOCH":"2023-02-19T23:42:57.433536","EPHEMERIS_TYPE":"0","ELEMENT_SET_NO":"999","REV_AT_EPOCH":"5578","TLE_LINE2":"2 51796  53.2168 308.7230 0001333  95.0870 265.0275 15.08870009 55787","RA_OF_ASC_NODE":"308.7230","DECAY_DATE":null,"ARG_OF_PERICENTER":"95.0870","TLE_LINE1":"1 51796U 22017AE  23050.98816474  .00010755  00000-0  69222-3 0  9999","TIME_SYSTEM":"UTC","LAUNCH_DATE":"2022-02-25","CENTER_NAME":"EARTH","RCS_SIZE":"LARGE","INCLINATION":"53.2168","PERIAPSIS":"538.732","REF_FRAME":"TEME","FILE":"3815761","MEAN_MOTION":"15.08870009","OBJECT_NAME":"STARLINK-3630","BSTAR":"0.00069222000000","MEAN_ANOMALY":"265.0275","OBJECT_ID":"2022-017AE","SITE":"AFWTR","COUNTRY_CODE":"US","PERIOD":"95.436","MEAN_MOTION_DOT":"0.00010755","APOAPSIS":"540.576","SEMIMAJOR_AXIS":"6917.789","CLASSIFICATION_TYPE":"U","MEAN_MOTION_DDOT":"0.0000000000000"},{"APOAPSIS":"525.815","CLASSIFICATION_TYPE":"U","MEAN_MOTION_DDOT":"0.0000000000000","SEMIMAJOR_AXIS":"6900.276","SITE":"AFWTR","COUNTRY_CODE":"US","MEAN_MOTION_DOT":"0.00042489","PERIOD":"95.073","OBJECT_NAME":"STARLINK-3627","BSTAR":"0.00227580000000","OBJECT_ID":"2022-017AF","MEAN_ANOMALY":"193.1319","FILE":"3815761","REF_FRAME":"TEME","MEAN_MOTION":"15.14617903","TLE_LINE1":"1 51797U 22017AF  23051.43364346  .00042489  00000-0  22758-2 0  9998","LAUNCH_DATE":"2022-02-25","CENTER_NAME":"EARTH","TIME_SYSTEM":"UTC","PERIAPSIS":"518.467","INCLINATION":"53.2153","RCS_SIZE":"LARGE","TLE_LINE2":"2 51797  53.2153 305.6110 0005324 166.9814 193.1319 15.14617903 55920","RA_OF_ASC_NODE":"305.6110","DECAY_DATE":null,"ARG_OF_PERICENTER":"166.9814","EPOCH":"2023-02-20T10:24:26.794944","ECCENTRICITY":"0.00053240","ELEMENT_SET_NO":"999","EPHEMERIS_TYPE":"0","REV_AT_EPOCH":"5592","NORAD_CAT_ID":"51797","MEAN_ELEMENT_THEORY":"SGP4","GP_ID":"226157614","OBJECT_TYPE":"PAYLOAD"},{"RA_OF_ASC_NODE":"306.3615","TLE_LINE2":"2 51798  53.2172 306.3615 0001377  75.4407 284.6738 15.08848069 55918","ARG_OF_PERICENTER":"75.4407","DECAY_DATE":null,"TIME_SYSTEM":"UTC","CENTER_NAME":"EARTH","LAUNCH_DATE":"2022-02-25","TLE_LINE1":"1 51798U 22017AG  23051.51440683  .00001992  00000-0  14320-3 0  9998","RCS_SIZE":"LARGE","INCLINATION":"53.2172","PERIAPSIS":"538.768","MEAN_ELEMENT_THEORY":"SGP4","NORAD_CAT_ID":"51798","OBJECT_TYPE":"PAYLOAD","GP_ID":"226158865","ECCENTRICITY":"0.00013770","EPOCH":"2023-02-20T12:20:44.750112","REV_AT_EPOCH":"5591","EPHEMERIS_TYPE":"0","ELEMENT_SET_NO":"999","MEAN_MOTION_DOT":"0.00001992","PERIOD":"95.437","COUNTRY_CODE":"US","SITE":"AFWTR","SEMIMAJOR_AXIS":"6917.856","CLASSIFICATION_TYPE":"U","MEAN_MOTION_DDOT":"0.0000000000000","APOAPSIS":"540.673","REF_FRAME":"TEME","FILE":"3815761","MEAN_MOTION":"15.08848069","OBJECT_NAME":"STARLINK-3634","OBJECT_ID":"2022-017AG","MEAN_ANOMALY":"284.6738","BSTAR":"0.00014320000000"},{"COUNTRY_CODE":"US","SITE":"AFWTR","PERIOD":"95.436","MEAN_MOTION_DOT":"0.00021044","APOAPSIS":"540.726","CLASSIFICATION_TYPE":"U","MEAN_MOTION_DDOT":"0.0000000000000","SEMIMAJOR_AXIS":"6917.793","MEAN_MOTION":"15.08868498","FILE":"3815761","REF_FRAME":"TEME","BSTAR":"0.00133530000000","OBJECT_ID":"2022-017AH","MEAN_ANOMALY":"284.8922","OBJECT_NAME":"STARLINK-3637","DECAY_DATE":null,"ARG_OF_PERICENTER":"75.2242","TLE_LINE2":"2 51799  53.2152 308.0996 0001544  75.2242 284.8922 15.08868498 55813","RA_OF_ASC_NODE":"308.0996","PERIAPSIS":"538.590","INCLINATION":"53.2152","RCS_SIZE":"LARGE","TLE_LINE1":"1 51799U 22017AH  23051.12800559  .00021044  00000-0  13353-2 0  9992","LAUNCH_DATE":"2022-02-25","CENTER_NAME":"EARTH","TIME_SYSTEM":"UTC","GP_ID":"226159116","OBJECT_TYPE":"PAYLOAD","MEAN_ELEMENT_THEORY":"SGP4","NORAD_CAT_ID":"51799","ELEMENT_SET_NO":"999","EPHEMERIS_TYPE":"0","REV_AT_EPOCH":"5581","EPOCH":"2023-02-20T03:04:19.682976","ECCENTRICITY":"0.00015440"},{"REF_FRAME":"TEME","FILE":"3815825","MEAN_MOTION":"15.08860286","OBJECT_NAME":"STARLINK-3600","MEAN_ANOMALY":"272.1012","OBJECT_ID":"2022-017AJ","BSTAR":"0.00126940000000","MEAN_MOTION_DOT":"0.00019983","PERIOD":"95.436","COUNTRY_CODE":"US","SITE":"AFWTR","SEMIMAJOR_AXIS":"6917.818","CLASSIFICATION_TYPE":"U","MEAN_MOTION_DDOT":"0.0000000000000","APOAPSIS":"540.895","MEAN_ELEMENT_THEORY":"SGP4","NORAD_CAT_ID":"51800","GP_ID":"226161694","OBJECT_TYPE":"PAYLOAD","ECCENTRICITY":"0.00017520","EPOCH":"2023-02-20T16:57:41.017536","REV_AT_EPOCH":"5594","EPHEMERIS_TYPE":"0","ELEMENT_SET_NO":"999","RA_OF_ASC_NODE":"305.5006","TLE_LINE2":"2 51800  53.2156 305.5006 0001752  88.0181 272.1012 15.08860286 55940","ARG_OF_PERICENTER":"88.0181","DECAY_DATE":null,"TIME_SYSTEM":"UTC","CENTER_NAME":"EARTH","LAUNCH_DATE":"2022-02-25","TLE_LINE1":"1 51800U 22017AJ  23051.70672474  .00019983  00000-0  12694-2 0  9998","RCS_SIZE":"LARGE","INCLINATION":"53.2156","PERIAPSIS":"538.471"},{"SITE":"AFWTR","COUNTRY_CODE":"US","PERIOD":"95.436","MEAN_MOTION_DOT":"0.00009728","APOAPSIS":"540.704","CLASSIFICATION_TYPE":"U","MEAN_MOTION_DDOT":"0.0000000000000","SEMIMAJOR_AXIS":"6917.791","MEAN_MOTION":"15.08869135","FILE":"3815761","REF_FRAME":"TEME","BSTAR":"0.00062793000000","OBJECT_ID":"2022-017AK","MEAN_ANOMALY":"281.9312","OBJECT_NAME":"STARLINK-3592","DECAY_DATE":null,"ARG_OF_PERICENTER":"78.1850","TLE_LINE2":"2 51801  53.2180 308.7027 0001515  78.1850 281.9312 15.08869135 55792","RA_OF_ASC_NODE":"308.7027","INCLINATION":"53.2180","PERIAPSIS":"538.608","RCS_SIZE":"LARGE","TLE_LINE1":"1 51801U 22017AK  23050.99184166  .00009728  00000-0  62793-3 0  9997","LAUNCH_DATE":"2022-02-25","CENTER_NAME":"EARTH","TIME_SYSTEM":"UTC","OBJECT_TYPE":"PAYLOAD","GP_ID":"226158115","MEAN_ELEMENT_THEORY":"SGP4","NORAD_CAT_ID":"51801","ELEMENT_SET_NO":"999","EPHEMERIS_TYPE":"0","REV_AT_EPOCH":"5579","EPOCH":"2023-02-19T23:48:15.119424","ECCENTRICITY":"0.00015150"}];
